{"type": "FeatureCollection", "features": [ {"type": "Feature", "properties": {"norad_id": 33492, "name": "GOSAT (IBUKI)", "group": "resource", "lat": -21.341311389675738, "lon": 106.98049990726209, "alt_km": 674.6090926506668, "timestamp": "2025-12-21T07:34:34.197292+00:00", "meta": {"OBJECT_NAME": "GOSAT (IBUKI)", "OBJECT_ID": "2009-002A", "EPOCH": "2025-12-20T21:51:21.587328", "MEAN_MOTION": 14.67539724, "ECCENTRICITY": 9.946e-05, "INCLINATION": 98.0772, "RA_OF_ASC_NODE": 103.4005, "ARG_OF_PERICENTER": 101.5523, "MEAN_ANOMALY": 258.5794, "EPHEMERIS_TYPE": 0, "CLASSIFICATION_TYPE": "U", "NORAD_CAT_ID": 33492, "ELEMENT_SET_NO": 999, "REV_AT_EPOCH": 90531, "BSTAR": 0.00011100393, "MEAN_MOTION_DOT": 5.81e-06, "MEAN_MOTION_DDOT": 0}, "tle": {"line1": "1 33492U 09002A   25354.91066652  .00000581  00000+0  11100-3 0  9995", "line2": "2 33492  98.0772 103.4005 0000994 101.5523 258.5794 14.67539724905314"}}, "geometry": {"type": "Point", "coordinates": [106.98049990726209, -21.341311389675738]}}, {"type": "Feature", "properties": {"norad_id": 35681, "name": "DEIMOS-1", "group": "resource", "lat": -73.43837363262531, "lon": -177.3634332584636, "alt_km": 653.9833794605311, "timestamp": "2025-12-21T07:34:34.197302+00:00", "meta": {"OBJECT_NAME": "DEIMOS-1", "OBJECT_ID": "2009-041A", "EPOCH": "2025-12-20T22:08:53.752704", "MEAN_MOTION": 14.74964005, "ECCENTRICITY": 0.00025969, "INCLINATION": 97.7144, "RA_OF_ASC_NODE": 155.1448, "ARG_OF_PERICENTER": 66.1816, "MEAN_ANOMALY": 293.9666, "EPHEMERIS_TYPE": 0, "CLASSIFICATION_TYPE": "U", "NORAD_CAT_ID": 35681, "ELEMENT_SET_NO": 999, "REV_AT_EPOCH": 88060, "BSTAR": 6.74827e-05, "MEAN_MOTION_DOT": 4.06e-06, "MEAN_MOTION_DDOT": 0}, "tle": {"line1": "1 35681U 09041A   25354.92284436  .00000406  00000+0  67483-4 0  9995", "line2": "2 35681  97.7144 155.1448 0002596  66.1816 293.9666 14.74964005880608"}}, "geometry": {"type": "Point", "coordinates": [-177.3634332584636, -73.43837363262531]}}, {"type": "Feature", "properties": {"norad_id": 35682, "name": "DUBAISAT-1", "group": "resource", "lat": -28.921271545896793, "lon": -58.57570843009298, "alt_km": 650.520964326156, "timestamp": "2025-12-21T07:34:34.197311+00:00", "meta": {"OBJECT_NAME": "DUBAISAT-1", "OBJECT_ID": "2009-041B", "EPOCH": "2025-12-20T20:51:31.286304", "MEAN_MOTION": 14.74624249, "ECCENTRICITY": 0.00092464, "INCLINATION": 97.9798, "RA_OF_ASC_NODE": 125.4295, "ARG_OF_PERICENTER": 285.257, "MEAN_ANOMALY": 74.7616, "EPHEMERIS_TYPE": 0, "CLASSIFICATION_TYPE": "U", "NORAD_CAT_ID": 35682, "ELEMENT_SET_NO": 999, "REV_AT_EPOCH": 87881, "BSTAR": 0.0001416956, "MEAN_MOTION_DOT": 8.95e-06, "MEAN_MOTION_DDOT": 0}, "tle": {"line1": "1 35682U 09041B   25354.86911211  .00000895  00000+0  14170-3 0  9993", "line2": "2 35682  97.9798 125.4295 0009246 285.2570  74.7616 14.74624249878819"}}, "geometry": {"type": "Point", "coordinates": [-58.57570843009298, -28.921271545896793]}}, {"type": "Feature", "properties": {"norad_id": 35931, "name": "OCEANSAT-2", "group": "resource", "lat": -53.958967169337335, "lon": 163.58533168518042, "alt_km": 911.9244689809775, "timestamp": "2025-12-21T07:34:34.197321+00:00", "meta": {"OBJECT_NAME": "OCEANSAT-2", "OBJECT_ID": "2009-051A", "EPOCH": "2025-12-20T23:35:42.561600", "MEAN_MOTION": 13.99623028, "ECCENTRICITY": 0.00160066, "INCLINATION": 98.2217, "RA_OF_ASC_NODE": 354.7473, "ARG_OF_PERICENTER": 23.4422, "MEAN_ANOMALY": 336.7471, "EPHEMERIS_TYPE": 0, "CLASSIFICATION_TYPE": "U", "NORAD_CAT_ID": 35931, "ELEMENT_SET_NO": 999, "REV_AT_EPOCH": 85440, "BSTAR": -5.9106934e-05, "MEAN_MOTION_DOT": -1.24e-06, "MEAN_MOTION_DDOT": 0}, "tle": {"line1": "1 35931U 09051A   25354.98313150 -.00000124  00000+0 -59107-4 0  9999", "line2": "2 35931  98.2217 354.7473 0016006  23.4422 336.7471 13.99623028854400"}}, "geometry": {"type": "Point", "coordinates": [163.58533168518042, -53.958967169337335]}}, {"type": "Feature", "properties": {"norad_id": 35946, "name": "WORLDVIEW-2 (WV-2)", "group": "resource", "lat": 81.45008178832884, "lon": -30.93233249941504, "alt_km": 755.9337719467312, "timestamp": "2025-12-21T07:34:34.197330+00:00", "meta": {"OBJECT_NAME": "WORLDVIEW-2 (WV-2)", "OBJECT_ID": "2009-055A", "EPOCH": "2025-12-20T22:48:11.689920", "MEAN_MOTION": 14.37727258, "ECCENTRICITY": 0.0004903, "INCLINATION": 98.4778, "RA_OF_ASC_NODE": 65.922, "ARG_OF_PERICENTER": 50.579, "MEAN_ANOMALY": 309.583, "EPHEMERIS_TYPE": 0, "CLASSIFICATION_TYPE": "U", "NORAD_CAT_ID": 35946, "ELEMENT_SET_NO": 999, "REV_AT_EPOCH": 85003, "BSTAR": 5.2065285e-05, "MEAN_MOTION_DOT": 1.13e-06, "MEAN_MOTION_DDOT": 0}, "tle": {"line1": "1 35946U 09055A   25354.95013530  .00000113  00000+0  52065-4 0  9997", "line2": "2 35946  98.4778  65.9220 0004903  50.5790 309.5830 14.37727258850038"}}, "geometry": {"type": "Point", "coordinates": [-30.93233249941504, 81.45008178832884]}}, {"type": "Feature", "properties": {"norad_id": 36036, "name": "SMOS", "group": "resource", "lat": -8.762361435821786, "lon": -1.0742799702751207, "alt_km": 763.5790830247706, "timestamp": "2025-12-21T07:34:34.197340+00:00", "meta": {"OBJECT_NAME": "SMOS", "OBJECT_ID": "2009-059A", "EPOCH": "2025-12-20T12:21:18.783072", "MEAN_MOTION": 14.39747686, "ECCENTRICITY": 0.0001079, "INCLINATION": 98.438, "RA_OF_ASC_NODE": 179.4481, "ARG_OF_PERICENTER": 83.7466, "MEAN_ANOMALY": 276.3845, "EPHEMERIS_TYPE": 0, "CLASSIFICATION_TYPE": "U", "NORAD_CAT_ID": 36036, "ELEMENT_SET_NO": 999, "REV_AT_EPOCH": 84774, "BSTAR": 0.00010402639, "MEAN_MOTION_DOT": 2.82e-06, "MEAN_MOTION_DDOT": 0}, "tle": {"line1": "1 36036U 09059A   25354.51480073  .00000282  00000+0  10403-3 0  9990", "line2": "2 36036  98.4380 179.4481 0001079  83.7466 276.3845 14.39747686847747"}}, "geometry": {"type": "Point", "coordinates": [-1.0742799702751207, -8.762361435821786]}}, {"type": "Feature", "properties": {"norad_id": 36110, "name": "YAOGAN-7", "group": "resource", "lat": 73.34212767039196, "lon": 85.19153160176766, "alt_km": 643.2326480540014, "timestamp": "2025-12-21T07:34:34.197349+00:00", "meta": {"OBJECT_NAME": "YAOGAN-7", "OBJECT_ID": "2009-069A", "EPOCH": "2025-12-20T22:58:38.136576", "MEAN_MOTION": 14.77743234, "ECCENTRICITY": 0.00233544, "INCLINATION": 98.0296, "RA_OF_ASC_NODE": 236.6848, "ARG_OF_PERICENTER": 253.2592, "MEAN_ANOMALY": 106.6056, "EPHEMERIS_TYPE": 0, "CLASSIFICATION_TYPE": "U", "NORAD_CAT_ID": 36110, "ELEMENT_SET_NO": 999, "REV_AT_EPOCH": 86330, "BSTAR": 6.8720368e-05, "MEAN_MOTION_DOT": 4.41e-06, "MEAN_MOTION_DDOT": 0}, "tle": {"line1": "1 36110U 09069A   25354.95738584  .00000441  00000+0  68720-4 0  9998", "line2": "2 36110  98.0296 236.6848 0023354 253.2592 106.6056 14.77743234863305"}}, "geometry": {"type": "Point", "coordinates": [85.19153160176766, 73.34212767039196]}}, {"type": "Feature", "properties": {"norad_id": 36605, "name": "TANDEM-X", "group": "resource", "lat": -6.791334208158873, "lon": 179.6784790771721, "alt_km": 512.7743118522712, "timestamp": "2025-12-21T07:34:34.197358+00:00", "meta": {"OBJECT_NAME": "TANDEM-X", "OBJECT_ID": "2010-030A", "EPOCH": "2025-12-20T11:47:12.909696", "MEAN_MOTION": 15.19154059, "ECCENTRICITY": 0.00018, "INCLINATION": 97.4444, "RA_OF_ASC_NODE": 359.7582, "ARG_OF_PERICENTER": 78.1402, "MEAN_ANOMALY": 282.0034, "EPHEMERIS_TYPE": 0, "CLASSIFICATION_TYPE": "U", "NORAD_CAT_ID": 36605, "ELEMENT_SET_NO": 999, "REV_AT_EPOCH": 85951, "BSTAR": 3.1882e-05, "MEAN_MOTION_DOT": 6.03e-06, "MEAN_MOTION_DDOT": 0}, "tle": {"line1": "1 36605U 10030A   25354.49112164  .00000603  00000+0  31882-4 0  9995", "line2": "2 36605  97.4444 359.7582 0001800  78.1402 282.0034 15.19154059859511"}}, "geometry": {"type": "Point", "coordinates": [179.6784790771721, -6.791334208158873]}}, {"type": "Feature", "properties": {"norad_id": 36795, "name": "CARTOSAT-2B", "group": "resource", "lat": 61.55085010874644, "lon": 29.44241034075085, "alt_km": 618.5502125106914, "timestamp": "2025-12-21T07:34:34.197368+00:00", "meta": {"OBJECT_NAME": "CARTOSAT-2B", "OBJECT_ID": "2010-035A", "EPOCH": "2025-12-20T23:10:29.847936", "MEAN_MOTION": 14.78734648, "ECCENTRICITY": 0.00127845, "INCLINATION": 97.7846, "RA_OF_ASC_NODE": 43.7287, "ARG_OF_PERICENTER": 52.4096, "MEAN_ANOMALY": 307.8274, "EPHEMERIS_TYPE": 0, "CLASSIFICATION_TYPE": "U", "NORAD_CAT_ID": 36795, "ELEMENT_SET_NO": 999, "REV_AT_EPOCH": 83351, "BSTAR": 5.7584769e-05, "MEAN_MOTION_DOT": 3.73e-06, "MEAN_MOTION_DDOT": 0}, "tle": {"line1": "1 36795U 10035A   25354.96562324  .00000373  00000+0  57585-4 0  9991", "line2": "2 36795  97.7846  43.7287 0012784  52.4096 307.8274 14.78734648833515"}}, "geometry": {"type": "Point", "coordinates": [29.44241034075085, 61.55085010874644]}}, {"type": "Feature", "properties": {"norad_id": 36834, "name": "YAOGAN-10", "group": "resource", "lat": -35.206958984263615, "lon": 20.704263888645325, "alt_km": 621.416888461813, "timestamp": "2025-12-21T07:34:34.197377+00:00", "meta": {"OBJECT_NAME": "YAOGAN-10", "OBJECT_ID": "2010-038A", "EPOCH": "2025-12-20T23:45:25.358976", "MEAN_MOTION": 14.84634618, "ECCENTRICITY": 0.00013982, "INCLINATION": 97.9132, "RA_OF_ASC_NODE": 14.7487, "ARG_OF_PERICENTER": 78.9964, "MEAN_ANOMALY": 305.3093, "EPHEMERIS_TYPE": 0, "CLASSIFICATION_TYPE": "U", "NORAD_CAT_ID": 36834, "ELEMENT_SET_NO": 999, "REV_AT_EPOCH": 83076, "BSTAR": 9.6302983e-05, "MEAN_MOTION_DOT": 7.6e-06, "MEAN_MOTION_DDOT": 0}, "tle": {"line1": "1 36834U 10038A   25354.98987684  .00000760  00000+0  96303-4 0  9991", "line2": "2 36834  97.9132  14.7487 0001398  78.9964 305.3093 14.84634618830764"}}, "geometry": {"type": "Point", "coordinates": [20.704263888645325, -35.206958984263615]}}]}